satname,norad_id,inclination_deg,eccentricity,mean_motion_rev_per_day,perigee_km,apogee_km,l1,l2
STARLINK-1564,46058,53.1616,0.0001244,15.30195811,474.3750184934015,476.08013560017025,1 46058U 20055AH  26156.46599645  .00001716  00000+0  70066-4 0  9990,2 46058  53.1616  66.6549 0001244 114.9499 245.1631 15.30195811322509
STARLINK-1570,46059,53.1591,0.0001027,15.31709126,470.00941435603636,471.41616810315463,1 46059U 20055AJ  26156.44155095  .00003470  00000+0  12350-3 0  9996,2 46059  53.1591  65.7283 0001027  90.2293 269.8826 15.31709126322470
STARLINK-1572,46060,53.1577,0.0001248,15.30193859,474.37810477312905,476.0887060263167,1 46060U 20055AK  26156.44701615  .00000779  00000+0  38443-4 0  9994,2 46060  53.1577  66.4907 0001248  82.2063 277.9079 15.30193859322477
STARLINK-1573,46061,53.1602,0.0001396,15.31702262,469.7771500424251,471.6893546168749,1 46061U 20055AL  26156.03605133 -.00000660  00000+0 -95130-5 0  9996,2 46061  53.1602  67.5855 0001396  99.0016 261.1143 15.31702262322459
STARLINK-1577,46063,53.1605,0.0001337,15.31655748,469.95619881948824,471.78762380237276,1 46063U 20055AN  26156.45553184  .00006879  00000+0  23354-3 0  9995,2 46063  53.1605  65.6260 0001337 107.1552 252.9596 15.31655748322517
STARLINK-1583,46064,53.163,0.0001342,15.31697257,469.82905158803624,471.66729236819447,1 46064U 20055AP  26156.46957957  .00000620  00000+0  31757-4 0  9998,2 46064  53.1630  66.0594 0001342  93.3033 266.8122 15.31697257322506
STARLINK-1536,46070,53.1605,0.0001245,15.31709783,469.85815121175165,471.5635143221116,1 46070U 20055AV  26156.40561865  .00002713  00000+0  99115-4 0  9995,2 46070  53.1605  53.7481 0001245  88.8414 271.2730 15.31709783322678
STARLINK-1542,46073,53.1588,0.0001372,15.3167643,469.8705815064932,471.74993263383294,1 46073U 20055AY  26156.66668980  .00047587  00000+0  15366-2 0  9994,2 46073  53.1588  55.5001 0001372 104.9778 121.0149 15.31676430  5624
STARLINK-1549,46074,53.0509,0.0003304,15.29118193,476.1816389271953,480.7124696702758,1 46074U 20055AZ  26156.45103657  .00034064  00000+0  11959-2 0  9997,2 46074  53.0509  53.6556 0003304  92.9610 267.1767 15.29118193322656
STARLINK-1551,46075,53.1597,0.0001097,15.30205476,474.44690819075186,475.95053004752754,1 46075U 20055BA  26155.99974853  .00003863  00000+0  14246-3 0  9996,2 46075  53.1597  55.5174 0001097  92.9966 267.1160 15.30205476322608
STARLINK-1552,46076,53.1622,0.0001215,15.31723652,469.8373607630256,471.5016207402796,1 46076U 20055BB  26156.44783892  .00004423  00000+0  15410-3 0  9996,2 46076  53.1622  53.0716 0001215  70.2068 289.9064 15.31723652322660
STARLINK-1559,46077,53.0228,0.0001498,15.38070158,450.79332751574475,452.8395815707263,1 46077U 20055BC  26156.32515292  .00046603  00000+0  12284-2 0  9992,2 46077  53.0228  23.2891 0001498 107.6284 252.4882 15.38070158323031
STARLINK-1566,46079,53.1613,0.0001223,15.31712716,469.86447673289695,471.53970277425015,1 46079U 20055BE  26155.99572411  .00004721  00000+0  16374-3 0  9992,2 46079  53.1613  55.0285 0001223 113.8236 246.2894 15.31712716322617
STARLINK-1568,46080,53.0593,0.0003245,15.53905933,403.13357634946715,407.5360495560735,1 46080U 20055BF  26155.72728662  .00046574  00000+0  71320-3 0  9990,2 46080  53.0593 335.3400 0003245  67.5178 292.6175 15.53905933323699
STARLINK-1578,46082,53.161,0.0001377,15.31702934,469.788159980375,471.6743382961886,1 46082U 20055BH  26156.00011766  .00001146  00000+0  48700-4 0  9997,2 46082  53.1610  55.5216 0001377  91.0637 269.0522 15.31702934322600
STARLINK-1579,46083,53.1616,0.0001313,15.31708045,469.8167592035552,471.6152680049281,1 46083U 20055BJ  26156.44316370  .00002566  00000+0  94401-4 0  9991,2 46083  53.1616  53.0006 0001313  64.3724 295.7413 15.31708045322678
STARLINK-1622,46128,53.0144,0.0007221,15.840613,314.13321235624244,323.80517311979384,1 46128U 20057M   26156.91668980  .00294741  00000+0  12445-2 0  9996,2 46128  53.0144 145.7585 0007221  56.6508 109.0943 15.84061300  6007
STARLINK-1623,46129,53.0401,0.0006243,15.74186873,342.747555343768,351.1444940083784,1 46129U 20057N   26156.33288337  .00101246  00000+0  68664-3 0  9999,2 46129  53.0401 186.7194 0006243  21.3139 338.8138 15.74186873320635
STARLINK-1596,46141,53.0329,0.0007488,15.5913161,385.1009709271111,395.2371861103002,1 46141U 20057AA  26156.33261374  .00088544  00000+0  11047-2 0  9992,2 46141  53.0329 168.9335 0007488  19.0271 341.1019 15.59131610320884
STARLINK-1597,46142,53.0417,0.00048,15.74110189,343.9362899747357,350.39257935201385,1 46142U 20057AB  26156.75369215  .00116090  00000+0  78826-3 0  9999,2 46142  53.0417 224.3562 0004800  26.5134 333.6128 15.74110189320138
STARLINK-1606,46144,53.0324,0.0002015,15.92702449,293.37938439745176,296.06854736670266,1 46144U 20057AD  26156.91668980  .00396152  71617-4  11332-2 0  9994,2 46144  53.0324 176.7527 0002015 134.6376  71.1322 15.92702449  5915
STARLINK-1608,46146,53.1583,0.0003898,15.35767721,455.9761263034434,461.3060785120797,1 46146U 20057AF  26156.57452044  .00051538  00000+0  14608-2 0  9998,2 46146  53.1583 259.8578 0003898 335.0227  25.0587 15.35767721319657
STARLINK-1667,46155,53.0109,0.0007256,15.89481612,298.8869002530964,308.583633286632,1 46155U 20057AQ  26156.91668980  .00401695  70867-4  13530-2 0  9993,2 46155  53.0109 145.0283 0007256  56.6434  92.1006 15.89481612  6012
STARLINK-1545,46156,53.0365,0.0005063,15.83102842,318.2798928889142,325.0641194885811,1 46156U 20057AR  26156.91668980  .00500360  00000+0  21585-2 0  9999,2 46156  53.0365 181.2507 0005063   3.0861 157.9958 15.83102842  6006
STARLINK-1595,46159,53.0411,0.0005111,15.71892733,350.0472995845448,356.9283664888753,1 46159U 20057AU  26156.46471197  .00090129  00000+0  67571-3 0  9997,2 46159  53.0411 228.5210 0005111  12.9878 347.1270 15.71892733321314
STARLINK-1598,46160,53.043,0.0001189,15.7179002,352.9806693067976,354.5815194296374,1 46160U 20057AV  26156.43879372  .00082569  00000+0  62302-3 0  9999,2 46160  53.0430 214.8039 0001189 302.9563  57.1339 15.71790020321497
STARLINK-1626,46167,53.0392,0.0001761,15.73326107,348.21394195713674,350.58338001693573,1 46167U 20057BC  26156.83337963  .01090126  00000+0  69121-2 0  9999,2 46167  53.0392 222.3449 0001761  94.7055  21.0006 15.73326107  6009
STARLINK-1633,46171,53.0327,0.0001729,15.81904617,323.8958096273709,326.2137733488671,1 46171U 20057BG  26156.83337963  .00982065  00000+0  42315-2 0  9991,2 46171  53.0327 183.5254 0001729  53.1835 315.3712 15.81904617  5923
